IRIDIUM 106             
1 41917U 17003A   25214.53243268  .00000022  00000+0  73510-6 0  9995
2 41917  86.3958 221.6336 0001900 101.9128 258.2281 14.34217594447539
IRIDIUM 103             
1 41918U 17003B   25214.51974752  .00000061  00000+0  14646-4 0  9999
2 41918  86.3953 221.5395 0001896  78.2382 281.9027 14.34217897447550
IRIDIUM 109             
1 41919U 17003C   25214.45632230  .00000017  00000+0 -88227-6 0  9995
2 41919  86.3957 221.6203 0002200  85.7277 274.4170 14.34217543447510
IRIDIUM 102             
1 41920U 17003D   25214.49437813  .00000043  00000+0  81719-5 0  9997
2 41920  86.3953 221.5347 0002413  89.1940 270.9532 14.34217743447602
IRIDIUM 105             
1 41921U 17003E   25214.46510902  .00000067  00000+0  16821-4 0  9993
2 41921  86.4005 190.0324 0002166  84.0484 276.0959 14.34216502449456
IRIDIUM 104             
1 41922U 17003F   25214.50706321  .00000040  00000+0  70543-5 0  9994
2 41922  86.3954 221.5672 0002336  79.8588 280.2871 14.34217779447591
IRIDIUM 114             
1 41923U 17003G   25214.51340524 -.00000001  00000+0 -74001-5 0  9997
2 41923  86.3956 221.5489 0001921  87.0235 273.1180 14.34217504447577
IRIDIUM 108             
1 41924U 17003H   25214.47192618  .00000010  00000+0 -33782-5 0  9992
2 41924  86.4006 189.9286 0002203  91.8946 268.2502 14.34217569449423
